{"fetched_at":"2026-07-24T07:06:17.942Z","source":"https://celestrak.org/NORAD/elements/gp.php?GROUP=stations&FORMAT=JSON","constellation":"tiangong","records":[{"OBJECT_NAME":"CSS (TIANHE)","OBJECT_ID":"2021-035A","EPOCH":"2026-07-23T17:44:40.762752","CLASSIFICATION_TYPE":"U","MEAN_MOTION":15.58301417,"ECCENTRICITY":0.0002755,"INCLINATION":41.4707,"RA_OF_ASC_NODE":100.0404,"ARG_OF_PERICENTER":309.6784,"MEAN_ANOMALY":50.381,"EPHEMERIS_TYPE":0,"NORAD_CAT_ID":48274,"ELEMENT_SET_NO":999,"REV_AT_EPOCH":29887,"BSTAR":0.00013794,"MEAN_MOTION_DOT":0.0001044,"MEAN_MOTION_DDOT":0}]}
