[ ["CSS (TIANHE)", 48274, "1 48274U 21035A   26204.73936068  .00010440  00000+0  13794-3 0  9997", "2 48274  41.4707 100.0404 0002755 309.6784  50.3810 15.58301417298871", -1.0]]